STARLINK-35878          
1 67178U 25303R   25351.60835648 -.00002699  85337-5  00000+0 0  9995
2 67178  43.0100  69.0834 0011500 323.6500   9.4800 16.01284782    16
STARLINK-35793          
1 67179U 25303S   25351.60835648 -.00002699  85337-5  00000+0 0  9996
2 67179  43.0100  69.0834 0011500 323.6500   9.4800 16.01284782    17
STARLINK-35876          
1 67180U 25303T   25351.60835648 -.00002699  85337-5  00000+0 0  9998
2 67180  43.0100  69.0834 0011500 323.6500   9.4800 16.01284782    19
STARLINK-35766          
1 67181U 25303U   25351.60835648 -.00002699  85337-5  00000+0 0  9999
2 67181  43.0100  69.0834 0011500 323.6500   9.4800 16.01284782    10
STARLINK-35782          
1 67182U 25303V   25351.60835648 -.00002699  85337-5  00000+0 0  9990
2 67182  43.0100  69.0834 0011500 323.6500   9.4800 16.01284782    11
STARLINK-35719          
1 67183U 25303W   25351.60835648 -.00002699  85337-5  00000+0 0  9991
2 67183  43.0100  69.0834 0011500 323.6500   9.4800 16.01284782    12
STARLINK-35910          
1 67184U 25303X   25351.60835648 -.00002699  85337-5  00000+0 0  9992
2 67184  43.0100  69.0834 0011500 323.6500   9.4800 16.01284782    13
STARLINK-35859          
1 67185U 25303Y   25351.60835648 -.00002699  85337-5  00000+0 0  9993
2 67185  43.0100  69.0834 0011500 323.6500   9.4800 16.01284782    14
STARLINK-35857          
1 67186U 25303Z   25351.60835648 -.00002699  85337-5  00000+0 0  9994
2 67186  43.0100  69.0834 0011500 323.6500   9.4800 16.01284782    15
STARLINK-35880          
1 67187U 25303AA  25351.60835648 -.00002699  85337-5  00000+0 0  9995
2 67187  43.0100  69.0834 0011500 323.6500   9.4800 16.01284782    16
STARLINK-35675          
1 67188U 25303AB  25351.60835648 -.00002699  85337-5  00000+0 0  9996
2 67188  43.0100  69.0834 0011500 323.6500   9.4800 16.01284782    17
STARLINK-35889          
1 67189U 25303AC  25351.60835648 -.00002699  85337-5  00000+0 0  9997
2 67189  43.0100  69.0834 0011500 323.6500   9.4800 16.01284782    18
STARLINK-35888          
1 67190U 25303AD  25351.60835648 -.00002699  85337-5  00000+0 0  9999
2 67190  43.0100  69.0834 0011500 323.6500   9.4800 16.01284782    10
STARLINK-35716          
1 67191U 25303AE  25351.60835648 -.00002699  85337-5  00000+0 0  9990
2 67191  43.0100  69.0834 0011500 323.6500   9.4800 16.01284782    11
DISKSAT A               
1 67219U 25305A   25354.38090451  .00000510  00000+0  50887-4 0  9996
2 67219  45.0057 310.0654 0003912 276.1097  83.9332 15.05762698   337
DISKSAT B               
1 67220U 25305B   25354.24828476  .00000511  00000+0  51086-4 0  9992
2 67220  45.0108 310.7693 0004681 270.4757  89.5581 15.05702195   312
DISKSAT C               
1 67221U 25305C   25354.31471422  .00001256  00000+0  10191-3 0  9994
2 67221  45.0067 310.4143 0004387 282.7791  77.2594 15.05653670   312
DISKSAT D               
1 67222U 25305D   25354.31483363  .00001252  00000+0  10184-3 0  9990
2 67222  45.0056 310.4150 0004477 287.6101  72.4284 15.05567005   317
ELECTRON KICK STAGE R/B 
1 67223U 25305E   25357.29083347  .00018707  00000+0  18366-3 0  9992
2 67223  44.9877 292.9264 0177490 166.6089 193.9601 15.48545747   794
ELECTRON R/B            
1 67224U 25305F   25352.76890193  .00172783  86369-5  22935-3 0  9995
2 67224  45.0188 318.3021 0262888 280.1207  77.0133 15.64663678    93
TJS-23                  
1 67226U 25306A   25365.06480098  .00000040  00000+0  00000+0 0  9997
2 67226   5.9705 298.3666 0001189 280.4575  79.7143  1.00275521   207
CZ-5 R/B                
1 67227U 25306B   25365.68612126  .00002560  00000+0  76011-3 0  9993
2 67227  16.3623 295.3555 7580766 185.6605 153.7806  1.92295643   237
QPS-SAR-15              
1 67228U 25307A   26001.17271622  .00009330  00000+0  80742-3 0  9997
2 67228  42.0074  63.9206 0009477 333.6302  26.4040 14.97198149  1636
ELECTRON KICK STAGE R/B 
1 67229U 25307B   25365.36478411  .00671960  13822-3  18992-2 0  9997
2 67229  42.0010  62.9543 0219103 308.7413  49.4033 15.63279516  1577
ELECTRON R/B            
1 67230U 25307C   25355.36249005  .00071881  81069-5  20248-3 0  9997
2 67230  41.9820 123.1026 0261408 268.1410  88.9482 15.55087105    19
SPACEMOBILE-006         
1 67232U 25309A   25360.75210442  .00001165  00000+0  72651-4 0  9997
2 67232  53.0002  40.8851 0010477 329.2446  30.7932 15.17699903   405
LVM3 R/B                
1 67233U 25309B   25360.74928094  .00001231  00000+0  72627-4 0  9993
2 67233  52.9350  40.7629 0010474 355.6984   4.3917 15.19340101   404
2025-310A               
1 67234U 25310A   25363.31529613  .00002994  00000+0  13914-3 0  9996
2 67234  97.9657   8.0673 0151612  68.9370 292.7996 15.11153747   571
SL-4 R/B                
1 67235U 25310B   25364.94554285  .00131108  22082-5  30581-3 0  9999
2 67235  97.9679  10.0184 0299672  57.0996 305.8706 15.50179935   832
FENGYUN 4C              
1 67246U 25312A   25360.90857406  .00039214  41525-6  21251-2 0  9998
2 67246  28.4641 334.3215 7309751 179.7824 181.1675  2.27841578    17
CZ-3B R/B               
1 67247U 25312B   25365.90881895  .00112298 -65195-6  45202-3 0  9990
2 67247  28.4417 332.3269 7238531 182.2099 170.7438  2.39516308   122
TIANHUI 7               
1 67300U 25314A   25365.92372150  .00003476  00000+0  14121-3 0  9992
2 67300  97.4225  78.1262 0001255 100.3877 259.7502 15.25236623   287
CZ-4B R/B               
1 67301U 25314B   25365.75235903  .00099613  48706-5  52684-3 0  9993
2 67301  97.3775  78.0261 0149992  13.3608 347.1555 15.66057522   218
2025-315A               
1 67302U 25315A   25365.60681806  .00007344  00000+0  11156-2 0  9993
2 67302  19.5051 100.4594 7295373 180.0434 167.9972  2.27849576    23
